IRIDIUM 171             
1 43929U 19002H   24362.36234732  .00000093  00000+0  26147-4 0  9991
2 43929  86.3986 218.1261 0002052  99.8452 260.2975 14.34218523312017
IRIDIUM 170             
1 43930U 19002J   24362.35620506  .00002370  00000+0  37166-3 0  9992
2 43930  86.6105 217.9145 0002400  85.3100 274.8391 14.72271507320273
IRIDIUM 167             
1 43931U 19002K   24362.56530789  .00000396  00000+0  13425-3 0  9997
2 43931  86.3976 217.8124 0001687  96.7208 263.4180 14.34220819312048
IRIDIUM 181             
1 56726U 23068S   24362.50027098  .00001240  00000+0  36066-3 0  9993
2 56726  86.6868 280.4774 0002376  94.1019 266.0454 14.43568657 85025
IRIDIUM 177             
1 56727U 23068T   24362.36302073  .00003159  00000+0  41221-3 0  9997
2 56727  86.1977 223.6246 0001968  80.7206 279.4237 14.80236985 86957
IRIDIUM 174             
1 56728U 23068U   24362.56038563  .00003104  00000+0  40517-3 0  9997
2 56728  86.1984 223.6501 0002324  86.5104 273.6382 14.80212566 86987
IRIDIUM 178             
1 56729U 23068V   24362.41976035  .00003376  00000+0  44054-3 0  9998
2 56729  86.5779 250.3217 0002676  95.1541 264.9986 14.80257471 86961
IRIDIUM 179             
1 56730U 23068W   24362.21153381  .00001087  00000+0  13969-3 0  9997
2 56730  86.6787 256.9757 0002407  82.3323 277.8172 14.80230227 86939
